[{"OBJECT_NAME":"STARLINK-3776","OBJECT_ID":"2022-041AD","EPOCH":"2026-03-09T08:48:22.425408","MEAN_MOTION":15.08834865,"ECCENTRICITY":0.00014032,"INCLINATION":53.2159,"RA_OF_ASC_NODE":100.5711,"ARG_OF_PERICENTER":90.3885,"MEAN_ANOMALY":269.7268,"EPHEMERIS_TYPE":0,"CLASSIFICATION_TYPE":"U","NORAD_CAT_ID":52288,"ELEMENT_SET_NO":999,"REV_AT_EPOCH":21445,"BSTAR":-3.2778753e-5,"MEAN_MOTION_DOT":-8.09e-6,"MEAN_MOTION_DDOT":0},{"OBJECT_NAME":"YUNYAO-1 43","OBJECT_ID":"2025-059A","EPOCH":"2026-03-09T23:54:24.516576","MEAN_MOTION":15.10329109,"ECCENTRICITY":0.00157026,"INCLINATION":97.608,"RA_OF_ASC_NODE":250.9377,"ARG_OF_PERICENTER":132.1084,"MEAN_ANOMALY":228.1483,"EPHEMERIS_TYPE":0,"CLASSIFICATION_TYPE":"U","NORAD_CAT_ID":63344,"ELEMENT_SET_NO":999,"REV_AT_EPOCH":5332,"BSTAR":0.00032498885,"MEAN_MOTION_DOT":5.279e-5,"MEAN_MOTION_DDOT":0}]
